[{"OBJECT_NAME":"STARLINK-3833","OBJECT_ID":"2022-051AU","EPOCH":"2026-03-09T09:39:22.849056","MEAN_MOTION":15.08843368,"ECCENTRICITY":0.00014301,"INCLINATION":53.2173,"RA_OF_ASC_NODE":135.408,"ARG_OF_PERICENTER":105.2509,"MEAN_ANOMALY":254.8641,"EPHEMERIS_TYPE":0,"CLASSIFICATION_TYPE":"U","NORAD_CAT_ID":52578,"ELEMENT_SET_NO":999,"REV_AT_EPOCH":21133,"BSTAR":-0.0001078499,"MEAN_MOTION_DOT":-2.004e-5,"MEAN_MOTION_DDOT":0},{"OBJECT_NAME":"DISKSAT B","OBJECT_ID":"2025-305B","EPOCH":"2026-03-09T19:33:34.074144","MEAN_MOTION":15.07484556,"ECCENTRICITY":0.00037827,"INCLINATION":45.0018,"RA_OF_ASC_NODE":250.2098,"ARG_OF_PERICENTER":311.4052,"MEAN_ANOMALY":48.6498,"EPHEMERIS_TYPE":0,"CLASSIFICATION_TYPE":"U","NORAD_CAT_ID":67220,"ELEMENT_SET_NO":999,"REV_AT_EPOCH":1231,"BSTAR":0.00082400752,"MEAN_MOTION_DOT":0.00012481,"MEAN_MOTION_DDOT":0}]
